{
    "links": {
        "self": "http://www.neowsapp.com/rest/v1/neo/3802091?api_key=iIulBulltgU6a56xZRHN4H3l9WmuAYTsLGpBGhQ2"
    },
    "id": "3802091",
    "neo_reference_id": "3802091",
    "name": "(2018 FY4)",
    "designation": "2018 FY4",
    "nasa_jpl_url": "http://ssd.jpl.nasa.gov/sbdb.cgi?sstr=3802091",
    "absolute_magnitude_h": 23.6,
    "estimated_diameter": {
        "kilometers": {
            "estimated_diameter_min": 0.0506471459,
            "estimated_diameter_max": 0.1132504611
        },
        "meters": {
            "estimated_diameter_min": 50.6471458835,
            "estimated_diameter_max": 113.2504610618
        },
        "miles": {
            "estimated_diameter_min": 0.0314706677,
            "estimated_diameter_max": 0.0703705522
        },
        "feet": {
            "estimated_diameter_min": 166.1651821003,
            "estimated_diameter_max": 371.5566426699
        }
    },
    "is_potentially_hazardous_asteroid": false,
    "close_approach_data": [
        {
            "close_approach_date": "2018-02-27",
            "close_approach_date_full": "2018-Feb-27 23:37",
            "epoch_date_close_approach": 1519774620000,
            "relative_velocity": {
                "kilometers_per_second": "5.6888652767",
                "kilometers_per_hour": "20479.9149962887",
                "miles_per_hour": "12725.4227375551"
            },
            "miss_distance": {
                "astronomical": "0.1260643913",
                "lunar": "49.0390482157",
                "kilometers": "18858964.421326531",
                "miles": "11718417.1011908878"
            },
            "orbiting_body": "Earth"
        }
    ],
    "orbital_data": {
        "orbit_id": "6",
        "orbit_determination_date": "2018-04-23 07:30:30",
        "first_observation_date": "2018-03-22",
        "last_observation_date": "2018-04-23",
        "data_arc_in_days": 32,
        "observations_used": 38,
        "orbit_uncertainty": "6",
        "minimum_orbit_intersection": ".115154",
        "jupiter_tisserand_invariant": "3.965",
        "epoch_osculation": "2459000.5",
        "eccentricity": ".4370785401143681",
        "semi_major_axis": "1.780814574512132",
        "inclination": "7.538060270971555",
        "ascending_node_longitude": "46.17224447565603",
        "orbital_period": "868.0134983847006",
        "perihelion_distance": "1.00245874006998",
        "perihelion_argument": "99.24266606453752",
        "aphelion_distance": "2.559170408954285",
        "perihelion_time": "2459032.277738150185",
        "mean_anomaly": "346.8204978893122",
        "mean_motion": ".4147400940998376",
        "equinox": "J2000",
        "orbit_class": {
            "orbit_class_type": "APO",
            "orbit_class_description": "Near-Earth asteroid orbits which cross the Earth’s orbit similar to that of 1862 Apollo",
            "orbit_class_range": "a (semi-major axis) > 1.0 AU; q (perihelion) < 1.017 AU"
        }
    },
    "is_sentry_object": false
}